{
  "norad_id": 57864,
  "name": "STARLINK-30432",
  "history": [
    {
      "epoch": "2026-03-28T14:46:24.041856",
      "apogee_km": 483.97364971619754,
      "perigee_km": 482.07996850488416,
      "latitude_deg": 40.13412033722702,
      "longitude_deg": 25.49337983992882,
      "semi_major_axis_km": 6861.163809110541,
      "eccentricity": 0.000138,
      "inclination_deg": 43.0044,
      "raan_deg": 178.1694,
      "arg_perigee_deg": 278.6781,
      "mean_anomaly_deg": 81.3914,
      "mean_motion_rev_day": 15.27587443
    }
  ]
}